{
    "links": {
        "self": "http://www.neowsapp.com/rest/v1/neo/54087805?api_key=iIulBulltgU6a56xZRHN4H3l9WmuAYTsLGpBGhQ2"
    },
    "id": "54087805",
    "neo_reference_id": "54087805",
    "name": "(2020 VO4)",
    "designation": "2020 VO4",
    "nasa_jpl_url": "http://ssd.jpl.nasa.gov/sbdb.cgi?sstr=54087805",
    "absolute_magnitude_h": 25.501,
    "estimated_diameter": {
        "kilometers": {
            "estimated_diameter_min": 0.0211035237,
            "estimated_diameter_max": 0.0471889136
        },
        "meters": {
            "estimated_diameter_min": 21.103523709,
            "estimated_diameter_max": 47.1889135782
        },
        "miles": {
            "estimated_diameter_min": 0.0131131176,
            "estimated_diameter_max": 0.0293218224
        },
        "feet": {
            "estimated_diameter_min": 69.2372847255,
            "estimated_diameter_max": 154.8192752238
        }
    },
    "is_potentially_hazardous_asteroid": false,
    "close_approach_data": [
        {
            "close_approach_date": "1980-12-22",
            "close_approach_date_full": "1980-Dec-22 21:45",
            "epoch_date_close_approach": 346369500000,
            "relative_velocity": {
                "kilometers_per_second": "10.2561378901",
                "kilometers_per_hour": "36922.0964045371",
                "miles_per_hour": "22941.9548464747"
            },
            "miss_distance": {
                "astronomical": "0.0368872792",
                "lunar": "14.3491516088",
                "kilometers": "5518258.398415304",
                "miles": "3428886.7691830352"
            },
            "orbiting_body": "Mars"
        },
        {
            "close_approach_date": "2020-11-12",
            "close_approach_date_full": "2020-Nov-12 11:04",
            "epoch_date_close_approach": 1605179040000,
            "relative_velocity": {
                "kilometers_per_second": "7.0974324832",
                "kilometers_per_hour": "25550.756939519",
                "miles_per_hour": "15876.2467216695"
            },
            "miss_distance": {
                "astronomical": "0.0487965716",
                "lunar": "18.9818663524",
                "kilometers": "7299863.174662492",
                "miles": "4535924.6431147096"
            },
            "orbiting_body": "Earth"
        }
    ],
    "orbital_data": {
        "orbit_id": "7",
        "orbit_determination_date": "2020-11-26 05:21:10",
        "first_observation_date": "2020-11-13",
        "last_observation_date": "2020-11-26",
        "data_arc_in_days": 13,
        "observations_used": 53,
        "orbit_uncertainty": "8",
        "minimum_orbit_intersection": ".0247117",
        "jupiter_tisserand_invariant": "3.788",
        "epoch_osculation": "2459170.5",
        "eccentricity": ".4730208838426448",
        "semi_major_axis": "1.912872777120867",
        "inclination": "1.339352484993045",
        "ascending_node_longitude": "324.5096629897719",
        "orbital_period": "966.3346597106523",
        "perihelion_distance": "1.00804400540862",
        "perihelion_argument": "67.40580491842961",
        "aphelion_distance": "2.817701548833114",
        "perihelion_time": "2459151.688424999013",
        "mean_anomaly": "7.008096969618265",
        "mean_motion": ".3725417446040837",
        "equinox": "J2000",
        "orbit_class": {
            "orbit_class_type": "APO",
            "orbit_class_description": "Near-Earth asteroid orbits which cross the Earth’s orbit similar to that of 1862 Apollo",
            "orbit_class_range": "a (semi-major axis) > 1.0 AU; q (perihelion) < 1.017 AU"
        }
    },
    "is_sentry_object": false
}